[{"OBJECT_NAME":"TIANMU-1 10","OBJECT_ID":"2023-101D","EPOCH":"2026-03-09T23:06:46.939392","MEAN_MOTION":15.2921896,"ECCENTRICITY":0.00069292,"INCLINATION":97.2749,"RA_OF_ASC_NODE":122.1027,"ARG_OF_PERICENTER":133.6162,"MEAN_ANOMALY":226.5654,"EPHEMERIS_TYPE":0,"CLASSIFICATION_TYPE":"U","NORAD_CAT_ID":57402,"ELEMENT_SET_NO":999,"REV_AT_EPOCH":14647,"BSTAR":0.00032238884,"MEAN_MOTION_DOT":9.075e-5,"MEAN_MOTION_DDOT":0},{"OBJECT_NAME":"STARLINK-32320","OBJECT_ID":"2024-191T","EPOCH":"2026-03-09T05:54:46.806912","MEAN_MOTION":15.2757081,"ECCENTRICITY":0.00017983,"INCLINATION":43.0044,"RA_OF_ASC_NODE":160.9013,"ARG_OF_PERICENTER":261.631,"MEAN_ANOMALY":98.4338,"EPHEMERIS_TYPE":0,"CLASSIFICATION_TYPE":"U","NORAD_CAT_ID":61638,"ELEMENT_SET_NO":999,"REV_AT_EPOCH":7742,"BSTAR":-1.0454742e-5,"MEAN_MOTION_DOT":-5.5e-6,"MEAN_MOTION_DDOT":0}]
